[{"OBJECT_NAME":"ONEWEB-0428","OBJECT_ID":"2022-012H","EPOCH":"2025-09-09T02:12:37.640448","MEAN_MOTION":13.10371261,"ECCENTRICITY":0.0001479,"INCLINATION":87.8742,"RA_OF_ASC_NODE":92.3393,"ARG_OF_PERICENTER":82.4344,"MEAN_ANOMALY":277.6952,"EPHEMERIS_TYPE":0,"CLASSIFICATION_TYPE":"U","NORAD_CAT_ID":51629,"ELEMENT_SET_NO":999,"REV_AT_EPOCH":17247,"BSTAR":0.0016871963,"MEAN_MOTION_DOT":6.02e-6,"MEAN_MOTION_DDOT":0},{"OBJECT_NAME":"ONEWEB-0431","OBJECT_ID":"2022-012J","EPOCH":"2025-09-09T01:29:27.191328","MEAN_MOTION":13.10397874,"ECCENTRICITY":0.00012378,"INCLINATION":87.8752,"RA_OF_ASC_NODE":92.3176,"ARG_OF_PERICENTER":101.4723,"MEAN_ANOMALY":258.6544,"EPHEMERIS_TYPE":0,"CLASSIFICATION_TYPE":"U","NORAD_CAT_ID":51630,"ELEMENT_SET_NO":999,"REV_AT_EPOCH":17252,"BSTAR":-0.00058688767,"MEAN_MOTION_DOT":-1.92e-6,"MEAN_MOTION_DDOT":0},{"OBJECT_NAME":"ONEWEB-0434","OBJECT_ID":"2022-012K","EPOCH":"2025-09-09T02:46:04.885248","MEAN_MOTION":13.10370608,"ECCENTRICITY":0.00023143,"INCLINATION":87.8744,"RA_OF_ASC_NODE":92.3486,"ARG_OF_PERICENTER":81.8136,"MEAN_ANOMALY":278.3253,"EPHEMERIS_TYPE":0,"CLASSIFICATION_TYPE":"U","NORAD_CAT_ID":51631,"ELEMENT_SET_NO":999,"REV_AT_EPOCH":17251,"BSTAR":-0.0013540299,"MEAN_MOTION_DOT":-4.6e-6,"MEAN_MOTION_DDOT":0},{"OBJECT_NAME":"ONEWEB-0435","OBJECT_ID":"2022-012L","EPOCH":"2025-09-08T23:18:06.129792","MEAN_MOTION":13.10371209,"ECCENTRICITY":0.00014057,"INCLINATION":87.8744,"RA_OF_ASC_NODE":92.3696,"ARG_OF_PERICENTER":73.5973,"MEAN_ANOMALY":286.5309,"EPHEMERIS_TYPE":0,"CLASSIFICATION_TYPE":"U","NORAD_CAT_ID":51632,"ELEMENT_SET_NO":999,"REV_AT_EPOCH":17248,"BSTAR":-0.001858541,"MEAN_MOTION_DOT":-6.36e-6,"MEAN_MOTION_DDOT":0},{"OBJECT_NAME":"ONEWEB-0436","OBJECT_ID":"2022-012M","EPOCH":"2025-09-09T00:29:37.205664","MEAN_MOTION":13.17650787,"ECCENTRICITY":0.00014766,"INCLINATION":87.9034,"RA_OF_ASC_NODE":61.7667,"ARG_OF_PERICENTER":89.0389,"MEAN_ANOMALY":271.0912,"EPHEMERIS_TYPE":0,"CLASSIFICATION_TYPE":"U","NORAD_CAT_ID":51633,"ELEMENT_SET_NO":999,"REV_AT_EPOCH":17665,"BSTAR":-0.00010946582,"MEAN_MOTION_DOT":-3.0e-7,"MEAN_MOTION_DDOT":0},{"OBJECT_NAME":"ONEWEB-0438","OBJECT_ID":"2022-012N","EPOCH":"2025-09-09T02:34:07.423968","MEAN_MOTION":13.10368768,"ECCENTRICITY":0.00018439,"INCLINATION":87.874,"RA_OF_ASC_NODE":92.3427,"ARG_OF_PERICENTER":84.7551,"MEAN_ANOMALY":275.3787,"EPHEMERIS_TYPE":0,"CLASSIFICATION_TYPE":"U","NORAD_CAT_ID":51634,"ELEMENT_SET_NO":999,"REV_AT_EPOCH":17253,"BSTAR":-0.00010014153,"MEAN_MOTION_DOT":-2.2e-7,"MEAN_MOTION_DDOT":0},{"OBJECT_NAME":"ONEWEB-0439","OBJECT_ID":"2022-012P","EPOCH":"2025-09-09T02:38:53.941056","MEAN_MOTION":13.10368875,"ECCENTRICITY":0.00016564,"INCLINATION":87.8741,"RA_OF_ASC_NODE":92.3305,"ARG_OF_PERICENTER":82.4947,"MEAN_ANOMALY":277.6369,"EPHEMERIS_TYPE":0,"CLASSIFICATION_TYPE":"U","NORAD_CAT_ID":51635,"ELEMENT_SET_NO":999,"REV_AT_EPOCH":17251,"BSTAR":-0.00068506068,"MEAN_MOTION_DOT":-2.26e-6,"MEAN_MOTION_DDOT":0},{"OBJECT_NAME":"ONEWEB-0442","OBJECT_ID":"2022-012Q","EPOCH":"2025-09-09T00:18:42.573600","MEAN_MOTION":13.1764892,"ECCENTRICITY":0.00023287,"INCLINATION":87.9034,"RA_OF_ASC_NODE":61.8222,"ARG_OF_PERICENTER":96.3009,"MEAN_ANOMALY":263.8387,"EPHEMERIS_TYPE":0,"CLASSIFICATION_TYPE":"U","NORAD_CAT_ID":51636,"ELEMENT_SET_NO":999,"REV_AT_EPOCH":17664,"BSTAR":-3.4193539e-5,"MEAN_MOTION_DOT":0,"MEAN_MOTION_DDOT":0},{"OBJECT_NAME":"ONEWEB-0443","OBJECT_ID":"2022-012R","EPOCH":"2025-09-09T00:46:38.712864","MEAN_MOTION":13.17648836,"ECCENTRICITY":0.00019682,"INCLINATION":87.9029,"RA_OF_ASC_NODE":61.8258,"ARG_OF_PERICENTER":83.2435,"MEAN_ANOMALY":276.892,"EPHEMERIS_TYPE":0,"CLASSIFICATION_TYPE":"U","NORAD_CAT_ID":51637,"ELEMENT_SET_NO":999,"REV_AT_EPOCH":17669,"BSTAR":-0.00016620153,"MEAN_MOTION_DOT":-5.2e-7,"MEAN_MOTION_DDOT":0},{"OBJECT_NAME":"ONEWEB-0444","OBJECT_ID":"2022-012S","EPOCH":"2025-09-09T00:34:37.805088","MEAN_MOTION":13.10370612,"ECCENTRICITY":0.00016277,"INCLINATION":87.8737,"RA_OF_ASC_NODE":92.348,"ARG_OF_PERICENTER":79.9124,"MEAN_ANOMALY":280.2187,"EPHEMERIS_TYPE":0,"CLASSIFICATION_TYPE":"U","NORAD_CAT_ID":51638,"ELEMENT_SET_NO":999,"REV_AT_EPOCH":17251,"BSTAR":0.0008446544,"MEAN_MOTION_DOT":3.08e-6,"MEAN_MOTION_DDOT":0},{"OBJECT_NAME":"ONEWEB-0445","OBJECT_ID":"2022-012T","EPOCH":"2025-09-08T23:15:43.868736","MEAN_MOTION":13.10372389,"ECCENTRICITY":0.00017256,"INCLINATION":87.8754,"RA_OF_ASC_NODE":92.3121,"ARG_OF_PERICENTER":91.1243,"MEAN_ANOMALY":269.0082,"EPHEMERIS_TYPE":0,"CLASSIFICATION_TYPE":"U","NORAD_CAT_ID":51639,"ELEMENT_SET_NO":999,"REV_AT_EPOCH":17251,"BSTAR":-0.0016889356,"MEAN_MOTION_DOT":-5.77e-6,"MEAN_MOTION_DDOT":0},{"OBJECT_NAME":"ONEWEB-0446","OBJECT_ID":"2022-012U","EPOCH":"2025-09-09T00:32:13.748640","MEAN_MOTION":13.10369407,"ECCENTRICITY":0.00016482,"INCLINATION":87.8739,"RA_OF_ASC_NODE":92.3638,"ARG_OF_PERICENTER":93.5691,"MEAN_ANOMALY":266.5625,"EPHEMERIS_TYPE":0,"CLASSIFICATION_TYPE":"U","NORAD_CAT_ID":51640,"ELEMENT_SET_NO":999,"REV_AT_EPOCH":17250,"BSTAR":0.0010052052,"MEAN_MOTION_DOT":3.64e-6,"MEAN_MOTION_DDOT":0},{"OBJECT_NAME":"ONEWEB-0448","OBJECT_ID":"2022-012V","EPOCH":"2025-09-09T00:39:23.946336","MEAN_MOTION":13.10370905,"ECCENTRICITY":0.00016428,"INCLINATION":87.8741,"RA_OF_ASC_NODE":92.3623,"ARG_OF_PERICENTER":82.7281,"MEAN_ANOMALY":277.4033,"EPHEMERIS_TYPE":0,"CLASSIFICATION_TYPE":"U","NORAD_CAT_ID":51641,"ELEMENT_SET_NO":999,"REV_AT_EPOCH":17247,"BSTAR":0.00034939293,"MEAN_MOTION_DOT":1.35e-6,"MEAN_MOTION_DDOT":0},{"OBJECT_NAME":"ONEWEB-0449","OBJECT_ID":"2022-012W","EPOCH":"2025-09-09T02:36:31.743936","MEAN_MOTION":13.1037071,"ECCENTRICITY":0.00021266,"INCLINATION":87.8736,"RA_OF_ASC_NODE":92.3172,"ARG_OF_PERICENTER":82.3885,"MEAN_ANOMALY":277.7484,"EPHEMERIS_TYPE":0,"CLASSIFICATION_TYPE":"U","NORAD_CAT_ID":51642,"ELEMENT_SET_NO":999,"REV_AT_EPOCH":17249,"BSTAR":-0.00032694032,"MEAN_MOTION_DOT":-1.01e-6,"MEAN_MOTION_DDOT":0},{"OBJECT_NAME":"ONEWEB-0451","OBJECT_ID":"2022-012X","EPOCH":"2025-09-08T22:35:25.257984","MEAN_MOTION":13.1764887,"ECCENTRICITY":0.00019099,"INCLINATION":87.9043,"RA_OF_ASC_NODE":61.7746,"ARG_OF_PERICENTER":89.9891,"MEAN_ANOMALY":270.1459,"EPHEMERIS_TYPE":0,"CLASSIFICATION_TYPE":"U","NORAD_CAT_ID":51643,"ELEMENT_SET_NO":999,"REV_AT_EPOCH":17662,"BSTAR":3.9274354e-5,"MEAN_MOTION_DOT":2.8e-7,"MEAN_MOTION_DDOT":0},{"OBJECT_NAME":"ONEWEB-0452","OBJECT_ID":"2022-012Y","EPOCH":"2025-09-09T00:22:21.022176","MEAN_MOTION":13.17650667,"ECCENTRICITY":0.00019191,"INCLINATION":87.9036,"RA_OF_ASC_NODE":61.8224,"ARG_OF_PERICENTER":84.4863,"MEAN_ANOMALY":275.6487,"EPHEMERIS_TYPE":0,"CLASSIFICATION_TYPE":"U","NORAD_CAT_ID":51644,"ELEMENT_SET_NO":999,"REV_AT_EPOCH":17664,"BSTAR":4.63274e-6,"MEAN_MOTION_DOT":1.5e-7,"MEAN_MOTION_DDOT":0},{"OBJECT_NAME":"ONEWEB-0456","OBJECT_ID":"2022-012AA","EPOCH":"2025-09-08T23:10:55.718688","MEAN_MOTION":13.10370572,"ECCENTRICITY":0.00014989,"INCLINATION":87.875,"RA_OF_ASC_NODE":92.306,"ARG_OF_PERICENTER":82.1319,"MEAN_ANOMALY":277.9978,"EPHEMERIS_TYPE":0,"CLASSIFICATION_TYPE":"U","NORAD_CAT_ID":51646,"ELEMENT_SET_NO":999,"REV_AT_EPOCH":17251,"BSTAR":-0.0014872785,"MEAN_MOTION_DOT":-5.06e-6,"MEAN_MOTION_DDOT":0}]
