ONEWEB-0428             
1 51629U 22012H   25252.09210232  .00000602  00000+0  16872-2 0  9998
2 51629  87.8742  92.3393 0001479  82.4344 277.6952 13.10371261172470
ONEWEB-0431             
1 51630U 22012J   25252.06212027 -.00000192  00000+0 -58689-3 0  9990
2 51630  87.8752  92.3176 0001237 101.4723 258.6544 13.10397874172527
ONEWEB-0434             
1 51631U 22012K   25252.11533432 -.00000460  00000+0 -13540-2 0  9997
2 51631  87.8744  92.3486 0002314  81.8136 278.3253 13.10370608172510
ONEWEB-0435             
1 51632U 22012L   25251.97090428 -.00000636  00000+0 -18585-2 0  9993
2 51632  87.8744  92.3696 0001405  73.5973 286.5309 13.10371209172488
ONEWEB-0436             
1 51633U 22012M   25252.02056951 -.00000030  00000+0 -10947-3 0  9997
2 51633  87.9034  61.7667 0001476  89.0389 271.0912 13.17650787176651
ONEWEB-0438             
1 51634U 22012N   25252.10703037 -.00000022  00000+0 -10014-3 0  9997
2 51634  87.8740  92.3427 0001843  84.7551 275.3787 13.10368768172538
ONEWEB-0439             
1 51635U 22012P   25252.11034654 -.00000226  00000+0 -68506-3 0  9996
2 51635  87.8741  92.3305 0001656  82.4947 277.6369 13.10368875172519
ONEWEB-0442             
1 51636U 22012Q   25252.01299275  .00000000  00000+0 -34194-4 0  9994
2 51636  87.9034  61.8222 0002328  96.3009 263.8387 13.17648920176649
ONEWEB-0443             
1 51637U 22012R   25252.03239251 -.00000052  00000+0 -16620-3 0  9996
2 51637  87.9029  61.8258 0001968  83.2435 276.8920 13.17648836176698
ONEWEB-0444             
1 51638U 22012S   25252.02404867  .00000308  00000+0  84465-3 0  9997
2 51638  87.8737  92.3480 0001627  79.9124 280.2187 13.10370612172517
ONEWEB-0445             
1 51639U 22012T   25251.96925774 -.00000577  00000+0 -16889-2 0  9999
2 51639  87.8754  92.3121 0001725  91.1243 269.0082 13.10372389172518
ONEWEB-0446             
1 51640U 22012U   25252.02238135  .00000364  00000+0  10052-2 0  9995
2 51640  87.8739  92.3638 0001648  93.5691 266.5625 13.10369407172504
ONEWEB-0448             
1 51641U 22012V   25252.02736049  .00000135  00000+0  34939-3 0  9990
2 51641  87.8741  92.3623 0001642  82.7281 277.4033 13.10370905172476
ONEWEB-0449             
1 51642U 22012W   25252.10870074 -.00000101  00000+0 -32694-3 0  9998
2 51642  87.8736  92.3172 0002126  82.3885 277.7484 13.10370710172493
ONEWEB-0451             
1 51643U 22012X   25251.94126456  .00000028  00000+0  39274-4 0  9996
2 51643  87.9043  61.7746 0001909  89.9891 270.1459 13.17648870176621
ONEWEB-0452             
1 51644U 22012Y   25252.01552109  .00000015  00000+0  46327-5 0  9998
2 51644  87.9036  61.8224 0001919  84.4863 275.6487 13.17650667176646
ONEWEB-0456             
1 51646U 22012AA  25251.96592267 -.00000506  00000+0 -14873-2 0  9997
2 51646  87.8750  92.3060 0001498  82.1319 277.9978 13.10370572172519
